TIANMU-1 07             
1 57399U 23101A   26065.57454230  .00008352  00000+0  29795-3 0  9991
2 57399  97.2728 118.5929 0004609 142.4105 217.7458 15.29118809145964
STARLINK-31107          
1 58684U 23211T   26068.05927359 -.00000272  00000+0 -37366-6 0  9995
2 58684  42.9994  89.2231 0001392 277.9362  82.1331 15.27585804122363
